[{"OBJECT_NAME":"STARLINK-4189","OBJECT_ID":"2022-062Z","EPOCH":"2026-03-09T11:51:54.504576","MEAN_MOTION":15.088298,"ECCENTRICITY":0.0001274,"INCLINATION":53.2173,"RA_OF_ASC_NODE":24.9711,"ARG_OF_PERICENTER":102.4564,"MEAN_ANOMALY":257.6571,"EPHEMERIS_TYPE":0,"CLASSIFICATION_TYPE":"U","NORAD_CAT_ID":52853,"ELEMENT_SET_NO":999,"REV_AT_EPOCH":20589,"BSTAR":5.0514e-5,"MEAN_MOTION_DOT":5.16e-6,"MEAN_MOTION_DDOT":0},{"OBJECT_NAME":"FALCON 9 DEB","OBJECT_ID":"2021-041BJ","EPOCH":"2026-03-09T14:15:46.870272","MEAN_MOTION":15.11971801,"ECCENTRICITY":0.0009424,"INCLINATION":53.0285,"RA_OF_ASC_NODE":180.5194,"ARG_OF_PERICENTER":169.4294,"MEAN_ANOMALY":190.6897,"EPHEMERIS_TYPE":0,"CLASSIFICATION_TYPE":"U","NORAD_CAT_ID":48609,"ELEMENT_SET_NO":999,"REV_AT_EPOCH":26442,"BSTAR":0.00034424,"MEAN_MOTION_DOT":5.684e-5,"MEAN_MOTION_DDOT":0}]
